[{"OBJECT_NAME":"STARLINK-4473","OBJECT_ID":"2022-105N","EPOCH":"2026-03-09T14:56:46.914144","MEAN_MOTION":15.01265587,"ECCENTRICITY":0.0002777,"INCLINATION":97.6047,"RA_OF_ASC_NODE":310.139,"ARG_OF_PERICENTER":98.7216,"MEAN_ANOMALY":261.4323,"EPHEMERIS_TYPE":0,"CLASSIFICATION_TYPE":"U","NORAD_CAT_ID":53660,"ELEMENT_SET_NO":999,"REV_AT_EPOCH":19322,"BSTAR":4.9957e-6,"MEAN_MOTION_DOT":6.0e-8,"MEAN_MOTION_DDOT":0},{"OBJECT_NAME":"CZ-4 DEB","OBJECT_ID":"2007-042E","EPOCH":"2026-03-09T05:05:13.801056","MEAN_MOTION":14.89671222,"ECCENTRICITY":0.00640153,"INCLINATION":98.6325,"RA_OF_ASC_NODE":167.9775,"ARG_OF_PERICENTER":42.5531,"MEAN_ANOMALY":318.0619,"EPHEMERIS_TYPE":0,"CLASSIFICATION_TYPE":"U","NORAD_CAT_ID":35397,"ELEMENT_SET_NO":999,"REV_AT_EPOCH":97028,"BSTAR":0.0012361728,"MEAN_MOTION_DOT":0.00012236,"MEAN_MOTION_DDOT":0}]
